start=new Date('2023-04-26T00:00:00.000Z').valueOf();
sats=[{"NORAD_CAT_ID":"54078","REV_AT_EPOCH":"2865","BSTAR":"0.00081672000000","ECCENTRICITY":"0.00008940","SITE":"AFETR","EPHEMERIS_TYPE":"0","MEAN_ELEMENT_THEORY":"SGP4","CLASSIFICATION_TYPE":"U","TLE_LINE2":"2 54078  53.2177 356.5333 0000894  89.6359 270.4735 15.08887214 28653","CENTER_NAME":"EARTH","REF_FRAME":"TEME","DECAY_DATE":null,"COUNTRY_CODE":"US","ARG_OF_PERICENTER":"89.6359","LAUNCH_DATE":"2022-10-20","PERIAPSIS":"538.983","MEAN_MOTION_DDOT":"0.0000000000000","GP_ID":"230744288","OBJECT_TYPE":"PAYLOAD","OBJECT_ID":"2022-136AD","RCS_SIZE":"LARGE","INCLINATION":"53.2177","FILE":"3894092","MEAN_MOTION":"15.08887214","TLE_LINE1":"1 54078U 22136AD  23114.98851430  .00012751  00000-0  81672-3 0  9990","OBJECT_NAME":"STARLINK-5138","ELEMENT_SET_NO":"999","MEAN_MOTION_DOT":"0.00012751","TIME_SYSTEM":"UTC","EPOCH":"2023-04-24T23:43:27.635520","APOAPSIS":"540.220","PERIOD":"95.435","MEAN_ANOMALY":"270.4735","SEMIMAJOR_AXIS":"6917.736","RA_OF_ASC_NODE":"356.5333"},{"APOAPSIS":"540.326","SEMIMAJOR_AXIS":"6917.727","MEAN_ANOMALY":"260.7522","PERIOD":"95.434","RA_OF_ASC_NODE":"7.7662","TIME_SYSTEM":"UTC","MEAN_MOTION_DOT":"0.00017268","EPOCH":"2023-04-24T17:40:26.386464","MEAN_MOTION":"15.08890117","ELEMENT_SET_NO":"999","OBJECT_NAME":"STARLINK-5175","TLE_LINE1":"1 54079U 22136AE  23114.73641651  .00017268  00000-0  10989-2 0  9996","FILE":"3894092","MEAN_MOTION_DDOT":"0.0000000000000","GP_ID":"230745039","OBJECT_ID":"2022-136AE","RCS_SIZE":"LARGE","OBJECT_TYPE":"PAYLOAD","INCLINATION":"53.2157","LAUNCH_DATE":"2022-10-20","ARG_OF_PERICENTER":"99.3590","PERIAPSIS":"538.858","SITE":"AFETR","TLE_LINE2":"2 54079  53.2157   7.7662 0001061  99.3590 260.7522 15.08890117 28476","CENTER_NAME":"EARTH","EPHEMERIS_TYPE":"0","MEAN_ELEMENT_THEORY":"SGP4","CLASSIFICATION_TYPE":"U","COUNTRY_CODE":"US","REF_FRAME":"TEME","DECAY_DATE":null,"NORAD_CAT_ID":"54079","REV_AT_EPOCH":"2847","ECCENTRICITY":"0.00010610","BSTAR":"0.00109890000000"},{"ARG_OF_PERICENTER":"81.9579","LAUNCH_DATE":"2022-10-20","PERIAPSIS":"539.056","OBJECT_TYPE":"PAYLOAD","RCS_SIZE":"LARGE","OBJECT_ID":"2022-136AF","INCLINATION":"53.2158","MEAN_MOTION_DDOT":"0.0000000000000","GP_ID":"230745290","BSTAR":"0.00178120000000","ECCENTRICITY":"0.00008260","NORAD_CAT_ID":"54080","REV_AT_EPOCH":"2847","REF_FRAME":"TEME","DECAY_DATE":null,"COUNTRY_CODE":"US","SITE":"AFETR","EPHEMERIS_TYPE":"0","CLASSIFICATION_TYPE":"U","MEAN_ELEMENT_THEORY":"SGP4","CENTER_NAME":"EARTH","TLE_LINE2":"2 54080  53.2158  10.8383 0000826  81.9579 278.1507 15.08878456 28474","EPOCH":"2023-04-25T05:23:22.676928","MEAN_MOTION_DOT":"0.00028203","TIME_SYSTEM":"UTC","RA_OF_ASC_NODE":"10.8383","APOAPSIS":"540.199","PERIOD":"95.435","MEAN_ANOMALY":"278.1507","SEMIMAJOR_AXIS":"6917.763","FILE":"3894092","TLE_LINE1":"1 54080U 22136AF  23115.22456802  .00028203  00000-0  17812-2 0  9998","OBJECT_NAME":"STARLINK-5160","ELEMENT_SET_NO":"999","MEAN_MOTION":"15.08878456"},{"ELEMENT_SET_NO":"999","OBJECT_NAME":"STARLINK-5165","TLE_LINE1":"1 54081U 22136AG  23114.72904771  .00013321  00000-0  85241-3 0  9993","MEAN_MOTION":"15.08884634","FILE":"3894092","RA_OF_ASC_NODE":"7.7216","SEMIMAJOR_AXIS":"6917.744","MEAN_ANOMALY":"263.5707","PERIOD":"95.435","APOAPSIS":"540.473","EPOCH":"2023-04-24T17:29:49.722144","TIME_SYSTEM":"UTC","MEAN_MOTION_DOT":"0.00013321","COUNTRY_CODE":"US","REF_FRAME":"TEME","DECAY_DATE":null,"CENTER_NAME":"EARTH","TLE_LINE2":"2 54081  53.2169   7.7216 0001249  96.5427 263.5707 15.08884634 28476","EPHEMERIS_TYPE":"0","MEAN_ELEMENT_THEORY":"SGP4","CLASSIFICATION_TYPE":"U","SITE":"AFETR","BSTAR":"0.00085241000000","ECCENTRICITY":"0.00012490","REV_AT_EPOCH":"2847","NORAD_CAT_ID":"54081","INCLINATION":"53.2169","RCS_SIZE":"LARGE","OBJECT_ID":"2022-136AG","OBJECT_TYPE":"PAYLOAD","GP_ID":"230746041","MEAN_MOTION_DDOT":"0.0000000000000","PERIAPSIS":"538.745","LAUNCH_DATE":"2022-10-20","ARG_OF_PERICENTER":"96.5427"},{"GP_ID":"230744789","MEAN_MOTION_DDOT":"0.0000000000000","INCLINATION":"53.2180","OBJECT_TYPE":"PAYLOAD","OBJECT_ID":"2022-136AH","RCS_SIZE":"LARGE","PERIAPSIS":"538.709","ARG_OF_PERICENTER":"97.4306","LAUNCH_DATE":"2022-10-20","EPHEMERIS_TYPE":"0","MEAN_ELEMENT_THEORY":"SGP4","CLASSIFICATION_TYPE":"U","TLE_LINE2":"2 54082  53.2180   6.2593 0001267  97.4306 262.6830 15.08892443 28528","CENTER_NAME":"EARTH","SITE":"AFETR","REF_FRAME":"TEME","DECAY_DATE":null,"COUNTRY_CODE":"US","REV_AT_EPOCH":"2852","NORAD_CAT_ID":"54082","ECCENTRICITY":"0.00012670","BSTAR":"0.00085294000000","PERIOD":"95.434","SEMIMAJOR_AXIS":"6917.720","MEAN_ANOMALY":"262.6830","APOAPSIS":"540.462","RA_OF_ASC_NODE":"6.2593","MEAN_MOTION_DOT":"0.00013332","TIME_SYSTEM":"UTC","EPOCH":"2023-04-25T01:32:02.788224","MEAN_MOTION":"15.08892443","TLE_LINE1":"1 54082U 22136AH  23115.06392116  .00013332  00000-0  85294-3 0  9996","OBJECT_NAME":"STARLINK-5210","ELEMENT_SET_NO":"999","FILE":"3894092"},{"EPOCH":"2023-04-24T23:40:44.438016","MEAN_MOTION_DOT":"0.00001758","TIME_SYSTEM":"UTC","RA_OF_ASC_NODE":"6.4880","APOAPSIS":"540.459","PERIOD":"95.436","MEAN_ANOMALY":"291.1282","SEMIMAJOR_AXIS":"6917.801","FILE":"3894092","TLE_LINE1":"1 54083U 22136AJ  23114.98662544  .00001758  00000-0  12843-3 0  9991","OBJECT_NAME":"STARLINK-5178","ELEMENT_SET_NO":"999","MEAN_MOTION":"15.08866097","ARG_OF_PERICENTER":"68.9833","LAUNCH_DATE":"2022-10-20","PERIAPSIS":"538.872","OBJECT_TYPE":"PAYLOAD","RCS_SIZE":"LARGE","OBJECT_ID":"2022-136AJ","INCLINATION":"53.2172","MEAN_MOTION_DDOT":"0.0000000000000","GP_ID":"230744539","ECCENTRICITY":"0.00011470","BSTAR":"0.00012843000000","NORAD_CAT_ID":"54083","REV_AT_EPOCH":"2851","REF_FRAME":"TEME","DECAY_DATE":null,"COUNTRY_CODE":"US","SITE":"AFETR","MEAN_ELEMENT_THEORY":"SGP4","CLASSIFICATION_TYPE":"U","EPHEMERIS_TYPE":"0","CENTER_NAME":"EARTH","TLE_LINE2":"2 54083  53.2172   6.4880 0001147  68.9833 291.1282 15.08866097 28519"},{"RA_OF_ASC_NODE":"6.5171","MEAN_ANOMALY":"284.9128","SEMIMAJOR_AXIS":"6917.743","PERIOD":"95.435","APOAPSIS":"540.377","EPOCH":"2023-04-24T23:47:26.082240","TIME_SYSTEM":"UTC","MEAN_MOTION_DOT":"0.00011653","ELEMENT_SET_NO":"999","OBJECT_NAME":"STARLINK-5183","TLE_LINE1":"1 54084U 22136AK  23114.99127410  .00011653  00000-0  74809-3 0  9996","MEAN_MOTION":"15.08884926","FILE":"3894092","INCLINATION":"53.2181","RCS_SIZE":"LARGE","OBJECT_ID":"2022-136AK","OBJECT_TYPE":"PAYLOAD","GP_ID":"230745791","MEAN_MOTION_DDOT":"0.0000000000000","PERIAPSIS":"538.840","LAUNCH_DATE":"2022-10-20","ARG_OF_PERICENTER":"75.1987","COUNTRY_CODE":"US","REF_FRAME":"TEME","DECAY_DATE":null,"TLE_LINE2":"2 54084  53.2181   6.5171 0001111  75.1987 284.9128 15.08884926 28515","CENTER_NAME":"EARTH","CLASSIFICATION_TYPE":"U","EPHEMERIS_TYPE":"0","MEAN_ELEMENT_THEORY":"SGP4","SITE":"AFETR","BSTAR":"0.00074809000000","ECCENTRICITY":"0.00011110","REV_AT_EPOCH":"2851","NORAD_CAT_ID":"54084"},{"FILE":"3894092","MEAN_MOTION":"15.08882803","TLE_LINE1":"1 54085U 22136AL  23115.11542488  .00014742  00000-0  94132-3 0  9991","ELEMENT_SET_NO":"999","OBJECT_NAME":"STARLINK-5166","MEAN_MOTION_DOT":"0.00014742","TIME_SYSTEM":"UTC","EPOCH":"2023-04-25T02:46:12.709632","PERIOD":"95.435","MEAN_ANOMALY":"278.6524","SEMIMAJOR_AXIS":"6917.750","APOAPSIS":"540.523","RA_OF_ASC_NODE":"5.8718","REV_AT_EPOCH":"2853","NORAD_CAT_ID":"54085","ECCENTRICITY":"0.00013130","BSTAR":"0.00094132000000","MEAN_ELEMENT_THEORY":"SGP4","EPHEMERIS_TYPE":"0","CLASSIFICATION_TYPE":"U","CENTER_NAME":"EARTH","TLE_LINE2":"2 54085  53.2183   5.8718 0001313  81.4617 278.6524 15.08882803 28535","SITE":"AFETR","DECAY_DATE":null,"REF_FRAME":"TEME","COUNTRY_CODE":"US","PERIAPSIS":"538.706","ARG_OF_PERICENTER":"81.4617","LAUNCH_DATE":"2022-10-20","GP_ID":"230745541","MEAN_MOTION_DDOT":"0.0000000000000","INCLINATION":"53.2183","OBJECT_TYPE":"PAYLOAD","OBJECT_ID":"2022-136AL","RCS_SIZE":"LARGE"},{"MEAN_MOTION":"15.08891053","ELEMENT_SET_NO":"999","OBJECT_NAME":"STARLINK-5211","TLE_LINE1":"1 54086U 22136AM  23114.98618167  .00018337  00000-0  11656-2 0  9997","FILE":"3894092","MEAN_ANOMALY":"274.6374","SEMIMAJOR_AXIS":"6917.724","PERIOD":"95.434","APOAPSIS":"540.392","RA_OF_ASC_NODE":"351.5275","TIME_SYSTEM":"UTC","MEAN_MOTION_DOT":"0.00018337","EPOCH":"2023-04-24T23:40:06.096288","TLE_LINE2":"2 54086  53.2171 351.5275 0001161  85.4751 274.6374 15.08891053 28723","CENTER_NAME":"EARTH","EPHEMERIS_TYPE":"0","CLASSIFICATION_TYPE":"U","MEAN_ELEMENT_THEORY":"SGP4","SITE":"AFETR","COUNTRY_CODE":"US","REF_FRAME":"TEME","DECAY_DATE":null,"REV_AT_EPOCH":"2872","NORAD_CAT_ID":"54086","ECCENTRICITY":"0.00011610","BSTAR":"0.00116560000000","GP_ID":"230744289","MEAN_MOTION_DDOT":"0.0000000000000","INCLINATION":"53.2171","OBJECT_ID":"2022-136AM","RCS_SIZE":"LARGE","OBJECT_TYPE":"PAYLOAD","PERIAPSIS":"538.786","LAUNCH_DATE":"2022-10-20","ARG_OF_PERICENTER":"85.4751"},{"REV_AT_EPOCH":"2851","NORAD_CAT_ID":"54087","BSTAR":"0.00060782000000","ECCENTRICITY":"0.00011570","MEAN_ELEMENT_THEORY":"SGP4","CLASSIFICATION_TYPE":"U","EPHEMERIS_TYPE":"0","CENTER_NAME":"EARTH","TLE_LINE2":"2 54087  53.2180   6.4386 0001157  86.8034 273.3090 15.08881749 28516","SITE":"AFETR","REF_FRAME":"TEME","DECAY_DATE":null,"COUNTRY_CODE":"US","PERIAPSIS":"538.817","ARG_OF_PERICENTER":"86.8034","LAUNCH_DATE":"2022-10-20","GP_ID":"230745040","MEAN_MOTION_DDOT":"0.0000000000000","INCLINATION":"53.2180","OBJECT_TYPE":"PAYLOAD","RCS_SIZE":"LARGE","OBJECT_ID":"2022-136AN","FILE":"3894092","MEAN_MOTION":"15.08881749","TLE_LINE1":"1 54087U 22136AN  23114.97926050  .00009410  00000-0  60782-3 0  9997","ELEMENT_SET_NO":"999","OBJECT_NAME":"STARLINK-5184","MEAN_MOTION_DOT":"0.00009410","TIME_SYSTEM":"UTC","EPOCH":"2023-04-24T23:30:08.107200","PERIOD":"95.435","SEMIMAJOR_AXIS":"6917.753","MEAN_ANOMALY":"273.3090","APOAPSIS":"540.418","RA_OF_ASC_NODE":"6.4386"}];
